STARLINK-3861           
1 52503U 22049BE  26068.30987268 -.00000741  00000+0 -28500-4 0  9999
2 52503  53.2187  40.7110 0001384  89.9727 270.1424 15.08837336212474
DISKSAT A               
1 67222U 25305D   26068.54789610  .00013824  00000+0  90452-3 0  9996
2 67222  45.0023 251.6019 0004082 318.1929  41.8634 15.07741062 12266
